[{"OBJECT_NAME":"TIGRISAT","OBJECT_ID":"2014-033AK","EPOCH":"2026-03-09T22:14:47.066496","MEAN_MOTION":14.84730018,"ECCENTRICITY":0.00503318,"INCLINATION":97.7676,"RA_OF_ASC_NODE":221.3196,"ARG_OF_PERICENTER":41.5802,"MEAN_ANOMALY":318.9224,"EPHEMERIS_TYPE":0,"CLASSIFICATION_TYPE":"U","NORAD_CAT_ID":40043,"ELEMENT_SET_NO":999,"REV_AT_EPOCH":63089,"BSTAR":0.00033712595,"MEAN_MOTION_DOT":2.867e-5,"MEAN_MOTION_DDOT":0},{"OBJECT_NAME":"SINOD-D 1","OBJECT_ID":"2015-058E","EPOCH":"2026-03-09T16:57:39.773376","MEAN_MOTION":14.95054547,"ECCENTRICITY":0.01172808,"INCLINATION":64.7759,"RA_OF_ASC_NODE":210.2419,"ARG_OF_PERICENTER":93.1753,"MEAN_ANOMALY":268.2787,"EPHEMERIS_TYPE":0,"CLASSIFICATION_TYPE":"U","NORAD_CAT_ID":40968,"ELEMENT_SET_NO":999,"REV_AT_EPOCH":10178,"BSTAR":0.00050694767,"MEAN_MOTION_DOT":6.216e-5,"MEAN_MOTION_DDOT":0}]
