TIGRISAT                
1 40043U 14033AK  26068.92693364  .00002867  00000+0  33713-3 0  9998
2 40043  97.7676 221.3196 0050332  41.5802 318.9224 14.84730018630893
SINOD-D 1               
1 40968U 15058E   26068.70671034  .00006216  00000+0  50695-3 0  9998
2 40968  64.7759 210.2419 0117280  93.1753 268.2787 14.95054547101784
